{
  "type": "FeatureCollection",
  "features": [
    {
      "type": "Feature",
      "properties": {
        "norad_id": 34554,
        "name": "COSMOS 2251 DEB",
        "group": "cosmos-2251-debris",
        "lat": -16.802678433665896,
        "lon": 139.455921370197,
        "alt_km": 786.0447654441723,
        "timestamp": "2025-12-04T07:39:36.526359+00:00",
        "meta_object_name": "COSMOS 2251 DEB",
        "meta_object_id": "1993-036UQ",
        "meta_epoch": "2025-12-02T18:19:59.022048",
        "meta_mean_motion": 14.37902673,
        "meta_eccentricity": 0.00225472,
        "meta_inclination": 74.0383,
        "meta_ra_of_asc_node": 317.3604,
        "meta_arg_of_pericenter": 22.1475,
        "meta_mean_anomaly": 47.5558,
        "meta_ephemeris_type": 0,
        "meta_classification_type": "U",
        "meta_norad_cat_id": 34554,
        "meta_element_set_no": 999,
        "meta_rev_at_epoch": 87612,
        "meta_bstar": 0.0004572497,
        "meta_mean_motion_dot": 1.358e-05,
        "meta_mean_motion_ddot": 0,
        "tle_line1": "1 34554U 93036UQ  25336.76387757  .00001358  00000+0  45725-3 0  9993",
        "tle_line2": "2 34554  74.0383 317.3604 0022547  22.1475  47.5558 14.37902673876123"
      },
      "geometry": {
        "type": "Point",
        "coordinates": [
          139.455921370197,
          -16.802678433665896
        ]
      }
    },
    {
      "type": "Feature",
      "properties": {
        "norad_id": 34556,
        "name": "COSMOS 2251 DEB",
        "group": "cosmos-2251-debris",
        "lat": -51.663550389454485,
        "lon": -17.347166367456175,
        "alt_km": 639.0472479714126,
        "timestamp": "2025-12-04T07:39:36.526368+00:00",
        "meta_object_name": "COSMOS 2251 DEB",
        "meta_object_id": "1993-036US",
        "meta_epoch": "2025-12-03T13:00:49.758912",
        "meta_mean_motion": 14.77311373,
        "meta_eccentricity": 0.00091481,
        "meta_inclination": 74.0147,
        "meta_ra_of_asc_node": 142.9242,
        "meta_arg_of_pericenter": 201.3806,
        "meta_mean_anomaly": 222.8784,
        "meta_ephemeris_type": 0,
        "meta_classification_type": "U",
        "meta_norad_cat_id": 34556,
        "meta_element_set_no": 999,
        "meta_rev_at_epoch": 88193,
        "meta_bstar": 0.0032519237,
        "meta_mean_motion_dot": 0.00023155,
        "meta_mean_motion_ddot": 0,
        "tle_line1": "1 34556U 93036US  25337.54224258  .00023155  00000+0  32519-2 0  9993",
        "tle_line2": "2 34556  74.0147 142.9242 0009148 201.3806 222.8784 14.77311373881933"
      },
      "geometry": {
        "type": "Point",
        "coordinates": [
          -17.347166367456175,
          -51.663550389454485
        ]
      }
    },
    {
      "type": "Feature",
      "properties": {
        "norad_id": 34560,
        "name": "COSMOS 2251 DEB",
        "group": "cosmos-2251-debris",
        "lat": -57.57486653306428,
        "lon": 131.70602409693572,
        "alt_km": 656.7453227873211,
        "timestamp": "2025-12-04T07:39:36.526377+00:00",
        "meta_object_name": "COSMOS 2251 DEB",
        "meta_object_id": "1993-036UW",
        "meta_epoch": "2025-12-03T06:37:21.000000",
        "meta_mean_motion": 14.71719361,
        "meta_eccentricity": 0.0015384,
        "meta_inclination": 74.0159,
        "meta_ra_of_asc_node": 160.5584,
        "meta_arg_of_pericenter": 241.2457,
        "meta_mean_anomaly": 292.2217,
        "meta_ephemeris_type": 0,
        "meta_classification_type": "U",
        "meta_norad_cat_id": 34560,
        "meta_element_set_no": 999,
        "meta_rev_at_epoch": 88112,
        "meta_bstar": 0.0026421,
        "meta_mean_motion_dot": 0.00016519,
        "meta_mean_motion_ddot": 0,
        "tle_line1": "1 34560U 93036UW  25337.27593750  .00016519  00000+0  26421-2 0  9995",
        "tle_line2": "2 34560  74.0159 160.5584 0015384 241.2457 292.2217 14.71719361881126"
      },
      "geometry": {
        "type": "Point",
        "coordinates": [
          131.70602409693572,
          -57.57486653306428
        ]
      }
    },
    {
      "type": "Feature",
      "properties": {
        "norad_id": 34563,
        "name": "COSMOS 2251 DEB",
        "group": "cosmos-2251-debris",
        "lat": 60.55896908948689,
        "lon": 8.959524605515357,
        "alt_km": 740.2759041950521,
        "timestamp": "2025-12-04T07:39:36.526386+00:00",
        "meta_object_name": "COSMOS 2251 DEB",
        "meta_object_id": "1993-036UZ",
        "meta_epoch": "2025-12-03T11:30:53.615808",
        "meta_mean_motion": 14.46460045,
        "meta_eccentricity": 0.00137712,
        "meta_inclination": 74.0388,
        "meta_ra_of_asc_node": 220.9949,
        "meta_arg_of_pericenter": 315.3305,
        "meta_mean_anomaly": 110.513,
        "meta_ephemeris_type": 0,
        "meta_classification_type": "U",
        "meta_norad_cat_id": 34563,
        "meta_element_set_no": 999,
        "meta_rev_at_epoch": 88063,
        "meta_bstar": 0.0007235832,
        "meta_mean_motion_dot": 2.579e-05,
        "meta_mean_motion_ddot": 0,
        "tle_line1": "1 34563U 93036UZ  25337.47978722  .00002579  00000+0  72358-3 0  9998",
        "tle_line2": "2 34563  74.0388 220.9949 0013771 315.3305 110.5130 14.46460045880637"
      },
      "geometry": {
        "type": "Point",
        "coordinates": [
          8.959524605515357,
          60.55896908948689
        ]
      }
    },
    {
      "type": "Feature",
      "properties": {
        "norad_id": 34564,
        "name": "COSMOS 2251 DEB",
        "group": "cosmos-2251-debris",
        "lat": 64.58558010592017,
        "lon": -69.35495724014439,
        "alt_km": 745.2756760949524,
        "timestamp": "2025-12-04T07:39:36.526396+00:00",
        "meta_object_name": "COSMOS 2251 DEB",
        "meta_object_id": "1993-036VA",
        "meta_epoch": "2025-12-03T19:55:54.547680",
        "meta_mean_motion": 14.40664101,
        "meta_eccentricity": 0.00186559,
        "meta_inclination": 74.0328,
        "meta_ra_of_asc_node": 254.4939,
        "meta_arg_of_pericenter": 0.0974,
        "meta_mean_anomaly": 56.2427,
        "meta_ephemeris_type": 0,
        "meta_classification_type": "U",
        "meta_norad_cat_id": 34564,
        "meta_element_set_no": 999,
        "meta_rev_at_epoch": 87878,
        "meta_bstar": 0.00040855683,
        "meta_mean_motion_dot": 1.281e-05,
        "meta_mean_motion_ddot": 0,
        "tle_line1": "1 34564U 93036VA  25337.83049245  .00001281  00000+0  40856-3 0  9995",
        "tle_line2": "2 34564  74.0328 254.4939 0018655   0.0974  56.2427 14.40664101878780"
      },
      "geometry": {
        "type": "Point",
        "coordinates": [
          -69.35495724014439,
          64.58558010592017
        ]
      }
    },
    {
      "type": "Feature",
      "properties": {
        "norad_id": 34567,
        "name": "COSMOS 2251 DEB",
        "group": "cosmos-2251-debris",
        "lat": -71.67467349468245,
        "lon": 51.70779645312397,
        "alt_km": 766.4352369619792,
        "timestamp": "2025-12-04T07:39:36.526405+00:00",
        "meta_object_name": "COSMOS 2251 DEB",
        "meta_object_id": "1993-036VD",
        "meta_epoch": "2025-12-03T20:23:50.208288",
        "meta_mean_motion": 14.2400273,
        "meta_eccentricity": 0.00746677,
        "meta_inclination": 74.0399,
        "meta_ra_of_asc_node": 172.7799,
        "meta_arg_of_pericenter": 248.9156,
        "meta_mean_anomaly": 126.9704,
        "meta_ephemeris_type": 0,
        "meta_classification_type": "U",
        "meta_norad_cat_id": 34567,
        "meta_element_set_no": 999,
        "meta_rev_at_epoch": 86998,
        "meta_bstar": 0.00034973906,
        "meta_mean_motion_dot": 8e-06,
        "meta_mean_motion_ddot": 0,
        "tle_line1": "1 34567U 93036VD  25337.84988667  .00000800  00000+0  34974-3 0  9999",
        "tle_line2": "2 34567  74.0399 172.7799 0074667 248.9156 126.9704 14.24002730869988"
      },
      "geometry": {
        "type": "Point",
        "coordinates": [
          51.70779645312397,
          -71.67467349468245
        ]
      }
    },
    {
      "type": "Feature",
      "properties": {
        "norad_id": 34569,
        "name": "COSMOS 2251 DEB",
        "group": "cosmos-2251-debris",
        "lat": 42.67877796540084,
        "lon": -131.2869756216594,
        "alt_km": 692.8272325982389,
        "timestamp": "2025-12-04T07:39:36.526414+00:00",
        "meta_object_name": "COSMOS 2251 DEB",
        "meta_object_id": "1993-036VF",
        "meta_epoch": "2025-12-03T18:15:52.797600",
        "meta_mean_motion": 14.24710596,
        "meta_eccentricity": 0.01568776,
        "meta_inclination": 73.9904,
        "meta_ra_of_asc_node": 214.3703,
        "meta_arg_of_pericenter": 44.8398,
        "meta_mean_anomaly": 18.4812,
        "meta_ephemeris_type": 0,
        "meta_classification_type": "U",
        "meta_norad_cat_id": 34569,
        "meta_element_set_no": 999,
        "meta_rev_at_epoch": 86840,
        "meta_bstar": 0.00079808647,
        "meta_mean_motion_dot": 2.086e-05,
        "meta_mean_motion_ddot": 0,
        "tle_line1": "1 34569U 93036VF  25337.76102775  .00002086  00000+0  79809-3 0  9994",
        "tle_line2": "2 34569  73.9904 214.3703 0156877  44.8398  18.4812 14.24710596868400"
      },
      "geometry": {
        "type": "Point",
        "coordinates": [
          -131.2869756216594,
          42.67877796540084
        ]
      }
    }
  ]
}